{
    "RECORDS": [
        {
            "bb": null,
            "bb_pos": 0,
            "id": 121580976835816,
            "CCSDS_CDM_VERS": 81264.49,
            "CREATION_DATE": "2063-04-12T14:41:14.504Z",
            "ORIGINATOR": "Klocko - Will",
            "MESSAGE_FOR": "Koch - Upton",
            "MESSAGE_ID": "0x6",
            "TCA": "1996-12-12T06:43:08.957Z",
            "MISS_DISTANCE": 46576.23,
            "RELATIVE_SPEED": 24083.82,
            "RELATIVE_POSITION_R": 86231.93,
            "RELATIVE_POSITION_T": 10456.53,
            "RELATIVE_POSITION_N": 34075.91,
            "RELATIVE_VELOCITY_R": 42696.98,
            "RELATIVE_VELOCITY_T": 29133.21,
            "RELATIVE_VELOCITY_N": 11742.93,
            "START_SCREEN_PERIOD": "0x5",
            "STOP_SCREEN_PERIOD": "0xF",
            "SCREEN_VOLUME_FRAME": "0xf",
            "SCREEN_VOLUME_SHAPE": "0xD",
            "SCREEN_VOLUME_X": 6516.52,
            "SCREEN_VOLUME_Y": 97781.79,
            "SCREEN_VOLUME_Z": 98810.82,
            "SCREEN_ENTRY_TIME": "2055-12-18T15:40:36.342Z",
            "SCREEN_EXIT_TIME": "2043-06-27T17:27:06.971Z",
            "COLLISION_PROBABILITY": 35504.02,
            "COLLISION_PROBABILITY_METHOD": "0xD",
            "OBJECT1": 317365291834217,
            "OBJECT2": 473155270869578
        },
        {
            "bb": null,
            "bb_pos": 0,
            "id": 138271454553462,
            "CCSDS_CDM_VERS": 32591.67,
            "CREATION_DATE": "2049-03-28T03:01:29.491Z",
            "ORIGINATOR": "Shields and Sons",
            "MESSAGE_FOR": "Jenkins - Hamill",
            "MESSAGE_ID": "0xf",
            "TCA": "2065-12-07T15:49:56.856Z",
            "MISS_DISTANCE": 89457.17,
            "RELATIVE_SPEED": 12092.24,
            "RELATIVE_POSITION_R": 11261.42,
            "RELATIVE_POSITION_T": 96846.03,
            "RELATIVE_POSITION_N": 13028.26,
            "RELATIVE_VELOCITY_R": 96173.22,
            "RELATIVE_VELOCITY_T": 41044.59,
            "RELATIVE_VELOCITY_N": 68601.09,
            "START_SCREEN_PERIOD": "0xE",
            "STOP_SCREEN_PERIOD": "0x2",
            "SCREEN_VOLUME_FRAME": "0xB",
            "SCREEN_VOLUME_SHAPE": "0xA",
            "SCREEN_VOLUME_X": 8219.12,
            "SCREEN_VOLUME_Y": 25717.4,
            "SCREEN_VOLUME_Z": 22764.45,
            "SCREEN_ENTRY_TIME": "2051-10-14T13:41:42.976Z",
            "SCREEN_EXIT_TIME": "2010-09-23T05:44:57.473Z",
            "COLLISION_PROBABILITY": 27929.69,
            "COLLISION_PROBABILITY_METHOD": "0x5",
            "OBJECT1": 837987625752066,
            "OBJECT2": 92698491483793
        },
        {
            "bb": null,
            "bb_pos": 0,
            "id": 317614771183154,
            "CCSDS_CDM_VERS": 20251.39,
            "CREATION_DATE": "2089-11-29T10:46:49.037Z",
            "ORIGINATOR": "Deckow, Turcotte and Stamm",
            "MESSAGE_FOR": "Wilderman - Wiegand",
            "MESSAGE_ID": "0x4",
            "TCA": "2027-02-05T19:37:58.842Z",
            "MISS_DISTANCE": 47632.42,
            "RELATIVE_SPEED": 79868.79,
            "RELATIVE_POSITION_R": 96830.35,
            "RELATIVE_POSITION_T": 53300.16,
            "RELATIVE_POSITION_N": 79214.43,
            "RELATIVE_VELOCITY_R": 24325.48,
            "RELATIVE_VELOCITY_T": 52423.44,
            "RELATIVE_VELOCITY_N": 82031.32,
            "START_SCREEN_PERIOD": "0xa",
            "STOP_SCREEN_PERIOD": "0xD",
            "SCREEN_VOLUME_FRAME": "0xb",
            "SCREEN_VOLUME_SHAPE": "0x6",
            "SCREEN_VOLUME_X": 31184.54,
            "SCREEN_VOLUME_Y": 5533.48,
            "SCREEN_VOLUME_Z": 55831.63,
            "SCREEN_ENTRY_TIME": "2093-10-07T08:30:12.904Z",
            "SCREEN_EXIT_TIME": "2087-10-27T02:13:29.790Z",
            "COLLISION_PROBABILITY": 59908.73,
            "COLLISION_PROBABILITY_METHOD": "0xD",
            "OBJECT1": 848991294443352,
            "OBJECT2": 642534287348963
        },
        {
            "bb": null,
            "bb_pos": 0,
            "id": 457161418634761,
            "CCSDS_CDM_VERS": 41581.55,
            "CREATION_DATE": "2056-01-09T14:40:42.022Z",
            "ORIGINATOR": "Kunde, Stanton and Lang",
            "MESSAGE_FOR": "Schneider - Donnelly",
            "MESSAGE_ID": "0x0",
            "TCA": "2038-11-24T02:17:13.701Z",
            "MISS_DISTANCE": 43456.75,
            "RELATIVE_SPEED": 75905.85,
            "RELATIVE_POSITION_R": 34868.81,
            "RELATIVE_POSITION_T": 95141.19,
            "RELATIVE_POSITION_N": 14589.33,
            "RELATIVE_VELOCITY_R": 68953.29,
            "RELATIVE_VELOCITY_T": 84251.31,
            "RELATIVE_VELOCITY_N": 67981.25,
            "START_SCREEN_PERIOD": "0xD",
            "STOP_SCREEN_PERIOD": "0xA",
            "SCREEN_VOLUME_FRAME": "0xF",
            "SCREEN_VOLUME_SHAPE": "0x7",
            "SCREEN_VOLUME_X": 64013.98,
            "SCREEN_VOLUME_Y": 96701.82,
            "SCREEN_VOLUME_Z": 83785.63,
            "SCREEN_ENTRY_TIME": "2020-03-28T07:35:23.972Z",
            "SCREEN_EXIT_TIME": "2082-06-24T04:45:56.107Z",
            "COLLISION_PROBABILITY": 66728.66,
            "COLLISION_PROBABILITY_METHOD": "0xF",
            "OBJECT1": 202522208106886,
            "OBJECT2": 183349376279139
        },
        {
            "bb": null,
            "bb_pos": 0,
            "id": 458079556143102,
            "CCSDS_CDM_VERS": 76353.16,
            "CREATION_DATE": "2077-08-11T02:33:21.989Z",
            "ORIGINATOR": "Glover, Herzog and Hahn",
            "MESSAGE_FOR": "Collier and Sons",
            "MESSAGE_ID": "0x3",
            "TCA": "2030-08-27T00:54:53.917Z",
            "MISS_DISTANCE": 33507.02,
            "RELATIVE_SPEED": 66605.44,
            "RELATIVE_POSITION_R": 62500.5,
            "RELATIVE_POSITION_T": 54508.9,
            "RELATIVE_POSITION_N": 6416.44,
            "RELATIVE_VELOCITY_R": 56424.04,
            "RELATIVE_VELOCITY_T": 13328.35,
            "RELATIVE_VELOCITY_N": 24012.53,
            "START_SCREEN_PERIOD": "0x9",
            "STOP_SCREEN_PERIOD": "0x1",
            "SCREEN_VOLUME_FRAME": "0xD",
            "SCREEN_VOLUME_SHAPE": "0x6",
            "SCREEN_VOLUME_X": 83385.26,
            "SCREEN_VOLUME_Y": 56578.5,
            "SCREEN_VOLUME_Z": 51479.6,
            "SCREEN_ENTRY_TIME": "2024-01-04T09:02:13.426Z",
            "SCREEN_EXIT_TIME": "2053-10-25T16:24:58.266Z",
            "COLLISION_PROBABILITY": 76177.35,
            "COLLISION_PROBABILITY_METHOD": "0xF",
            "OBJECT1": 608966943269744,
            "OBJECT2": 896030278343402
        },
        {
            "bb": null,
            "bb_pos": 0,
            "id": 633545708926852,
            "CCSDS_CDM_VERS": 52476.61,
            "CREATION_DATE": "2006-12-28T14:18:24.278Z",
            "ORIGINATOR": "Lind Inc",
            "MESSAGE_FOR": "Treutel Group",
            "MESSAGE_ID": "0xa",
            "TCA": "2065-07-10T04:06:56.266Z",
            "MISS_DISTANCE": 75535.8,
            "RELATIVE_SPEED": 94835.76,
            "RELATIVE_POSITION_R": 80994.34,
            "RELATIVE_POSITION_T": 80477.14,
            "RELATIVE_POSITION_N": 61366.04,
            "RELATIVE_VELOCITY_R": 33179.38,
            "RELATIVE_VELOCITY_T": 33997.73,
            "RELATIVE_VELOCITY_N": 17710.2,
            "START_SCREEN_PERIOD": "0xF",
            "STOP_SCREEN_PERIOD": "0x2",
            "SCREEN_VOLUME_FRAME": "0xa",
            "SCREEN_VOLUME_SHAPE": "0x5",
            "SCREEN_VOLUME_X": 28332.01,
            "SCREEN_VOLUME_Y": 25969.34,
            "SCREEN_VOLUME_Z": 81711.91,
            "SCREEN_ENTRY_TIME": "2024-05-05T12:16:56.562Z",
            "SCREEN_EXIT_TIME": "2041-08-04T20:09:09.271Z",
            "COLLISION_PROBABILITY": 22544.27,
            "COLLISION_PROBABILITY_METHOD": "0xa",
            "OBJECT1": 999940365054947,
            "OBJECT2": 875283020603720
        },
        {
            "bb": null,
            "bb_pos": 0,
            "id": 772808777065539,
            "CCSDS_CDM_VERS": 35242.15,
            "CREATION_DATE": "2070-11-06T19:16:22.897Z",
            "ORIGINATOR": "Hintz - Russel",
            "MESSAGE_FOR": "Barton - Lueilwitz",
            "MESSAGE_ID": "0xF",
            "TCA": "2073-05-17T18:50:19.242Z",
            "MISS_DISTANCE": 24528.89,
            "RELATIVE_SPEED": 91589.35,
            "RELATIVE_POSITION_R": 90597.19,
            "RELATIVE_POSITION_T": 71694.69,
            "RELATIVE_POSITION_N": 2347.9,
            "RELATIVE_VELOCITY_R": 62932.12,
            "RELATIVE_VELOCITY_T": 85081.94,
            "RELATIVE_VELOCITY_N": 75874.71,
            "START_SCREEN_PERIOD": "0x9",
            "STOP_SCREEN_PERIOD": "0xC",
            "SCREEN_VOLUME_FRAME": "0xd",
            "SCREEN_VOLUME_SHAPE": "0x1",
            "SCREEN_VOLUME_X": 71528.29,
            "SCREEN_VOLUME_Y": 53833.64,
            "SCREEN_VOLUME_Z": 3007.34,
            "SCREEN_ENTRY_TIME": "1998-01-03T12:59:32.292Z",
            "SCREEN_EXIT_TIME": "2035-01-21T07:48:19.994Z",
            "COLLISION_PROBABILITY": 12634.56,
            "COLLISION_PROBABILITY_METHOD": "0x2",
            "OBJECT1": 598470461407047,
            "OBJECT2": 731341556258633
        },
        {
            "bb": null,
            "bb_pos": 0,
            "id": 879568148547318,
            "CCSDS_CDM_VERS": 25019.74,
            "CREATION_DATE": "2092-03-26T22:26:25.070Z",
            "ORIGINATOR": "Jakubowski, Veum and Shields",
            "MESSAGE_FOR": "McCullough - Baumbach",
            "MESSAGE_ID": "0x5",
            "TCA": "2073-11-27T01:16:45.591Z",
            "MISS_DISTANCE": 49025.59,
            "RELATIVE_SPEED": 24890,
            "RELATIVE_POSITION_R": 77199.08,
            "RELATIVE_POSITION_T": 65772.49,
            "RELATIVE_POSITION_N": 48904.76,
            "RELATIVE_VELOCITY_R": 83009.47,
            "RELATIVE_VELOCITY_T": 46596.23,
            "RELATIVE_VELOCITY_N": 90856.65,
            "START_SCREEN_PERIOD": "0x8",
            "STOP_SCREEN_PERIOD": "0x4",
            "SCREEN_VOLUME_FRAME": "0x9",
            "SCREEN_VOLUME_SHAPE": "0x5",
            "SCREEN_VOLUME_X": 71808.06,
            "SCREEN_VOLUME_Y": 19572.22,
            "SCREEN_VOLUME_Z": 90363.43,
            "SCREEN_ENTRY_TIME": "2008-01-20T02:38:36.109Z",
            "SCREEN_EXIT_TIME": "2002-05-06T22:38:43.134Z",
            "COLLISION_PROBABILITY": 31440.51,
            "COLLISION_PROBABILITY_METHOD": "0xA",
            "OBJECT1": 774843371338438,
            "OBJECT2": 142744827702754
        },
        {
            "bb": null,
            "bb_pos": 0,
            "id": 884342578949192,
            "CCSDS_CDM_VERS": 16629.38,
            "CREATION_DATE": "2048-09-03T23:41:02.070Z",
            "ORIGINATOR": "Bartoletti Group",
            "MESSAGE_FOR": "Wisozk, Wolf and Parker",
            "MESSAGE_ID": "0x7",
            "TCA": "2057-11-07T08:43:50.772Z",
            "MISS_DISTANCE": 29526.15,
            "RELATIVE_SPEED": 30297.01,
            "RELATIVE_POSITION_R": 57200.21,
            "RELATIVE_POSITION_T": 67295.4,
            "RELATIVE_POSITION_N": 64153.43,
            "RELATIVE_VELOCITY_R": 32953.75,
            "RELATIVE_VELOCITY_T": 77447.55,
            "RELATIVE_VELOCITY_N": 31686.72,
            "START_SCREEN_PERIOD": "0xf",
            "STOP_SCREEN_PERIOD": "0x7",
            "SCREEN_VOLUME_FRAME": "0xE",
            "SCREEN_VOLUME_SHAPE": "0x6",
            "SCREEN_VOLUME_X": 4625.42,
            "SCREEN_VOLUME_Y": 58761.16,
            "SCREEN_VOLUME_Z": 38092.96,
            "SCREEN_ENTRY_TIME": "2077-07-07T21:01:36.196Z",
            "SCREEN_EXIT_TIME": "2059-10-08T04:33:39.330Z",
            "COLLISION_PROBABILITY": 55219.41,
            "COLLISION_PROBABILITY_METHOD": "0x3",
            "OBJECT1": 261778490823052,
            "OBJECT2": 711169291181867
        },
        {
            "bb": null,
            "bb_pos": 0,
            "id": 971989124436305,
            "CCSDS_CDM_VERS": 89101.29,
            "CREATION_DATE": "2087-10-16T20:59:34.508Z",
            "ORIGINATOR": "Hoppe Inc",
            "MESSAGE_FOR": "Lind - Sporer",
            "MESSAGE_ID": "0x6",
            "TCA": "2096-07-25T01:54:49.108Z",
            "MISS_DISTANCE": 63481.1,
            "RELATIVE_SPEED": 4992.34,
            "RELATIVE_POSITION_R": 55681.62,
            "RELATIVE_POSITION_T": 45044.78,
            "RELATIVE_POSITION_N": 18958.84,
            "RELATIVE_VELOCITY_R": 46017.5,
            "RELATIVE_VELOCITY_T": 30457.48,
            "RELATIVE_VELOCITY_N": 52838.64,
            "START_SCREEN_PERIOD": "0x9",
            "STOP_SCREEN_PERIOD": "0x0",
            "SCREEN_VOLUME_FRAME": "0x0",
            "SCREEN_VOLUME_SHAPE": "0x3",
            "SCREEN_VOLUME_X": 79000.91,
            "SCREEN_VOLUME_Y": 86960.39,
            "SCREEN_VOLUME_Z": 75474.47,
            "SCREEN_ENTRY_TIME": "2068-06-12T20:48:09.339Z",
            "SCREEN_EXIT_TIME": "2040-02-23T10:20:16.554Z",
            "COLLISION_PROBABILITY": 69734.14,
            "COLLISION_PROBABILITY_METHOD": "0x7",
            "OBJECT1": 170475206599471,
            "OBJECT2": 350491410917620
        }
    ]
}